CCSDS_OEM_VERS = 1.0
CREATION_DATE  = 2017-05-11T11:59:46
ORIGINATOR     = GMAT USER

META_START
OBJECT_NAME          = MOPSSat_alt_35785_km_RAAN_270_096
OBJECT_ID            = SatId
CENTER_NAME          = Earth
REF_FRAME            = EME2000
TIME_SYSTEM          = UTC
START_TIME           = 2017-01-01T00:00:00.000
USEABLE_START_TIME   = 2017-01-01T00:00:00.000
USEABLE_STOP_TIME    = 2017-01-02T00:00:00.000
STOP_TIME            = 2017-01-02T00:00:00.000
INTERPOLATION        = Lagrange
INTERPOLATION_DEGREE = 7 
META_STOP


                                                                                   

2017-01-01T08:33:20.000   3.073725199095159e+04   3.290936333915616e+04  -9.331976614200201e-01  -1.949523032229898e+00   2.109182801621738e+00  -1.002394560375474e-05
2017-01-01T08:33:30.000   3.071775005290182e+04   3.293044798339425e+04  -9.332976322639887e-01  -1.950864328440611e+00   2.107745843834717e+00  -9.970218460136002e-06
2017-01-01T08:33:40.000   3.069823470728952e+04   3.295151825424327e+04  -9.333970657054279e-01  -1.952204585091123e+00   2.106308167775750e+00  -9.916465313805166e-06
2017-01-01T08:33:50.000   3.067870596449015e+04   3.297257414454778e+04  -9.334959614845925e-01  -1.953543802000433e+00   2.104869774153186e+00  -9.862686195524581e-06
2017-01-01T08:34:00.000   3.065916383489447e+04   3.299361564714439e+04  -9.335943193419657e-01  -1.954881978986952e+00   2.103430663676105e+00  -9.808881136103466e-06
2017-01-01T08:34:10.000   3.063960832884962e+04   3.301464275492613e+04  -9.336921390185789e-01  -1.956219115872604e+00   2.101990837049965e+00  -9.755050166232661e-06
2017-01-01T08:34:20.000   3.062003945668121e+04   3.303565546081674e+04  -9.337894202558544e-01  -1.957555212481172e+00   2.100550294978253e+00  -9.701193316551798e-06
2017-01-01T08:34:30.000   3.060045722870501e+04   3.305665375775963e+04  -9.338861627955850e-01  -1.958890268637617e+00   2.099109038163320e+00  -9.647310617675611e-06
2017-01-01T08:34:40.000   3.058086165525032e+04   3.307763763869282e+04  -9.339823663798144e-01  -1.960224284166470e+00   2.097667067308119e+00  -9.593402100259733e-06
2017-01-01T08:34:50.000   3.056125274667022e+04   3.309860709653629e+04  -9.340780307507550e-01  -1.961557258891029e+00   2.096224383116958e+00  -9.539467795027110e-06
2017-01-01T08:35:00.000   3.054163051336558e+04   3.311956212416834e+04  -9.341731556507106e-01  -1.962889192631861e+00   2.094780986297258e+00  -9.485507732835169e-06
2017-01-01T08:35:10.000   3.052199496572504e+04   3.314050271448880e+04  -9.342677408223528e-01  -1.964220085210820e+00   2.093336877555143e+00  -9.431521944511379e-06
2017-01-01T08:35:20.000   3.050234611438503e+04   3.316142886014459e+04  -9.343617860075241e-01  -1.965549936433606e+00   2.091892057614539e+00  -9.377510461564704e-06
2017-01-01T08:35:30.000   3.048268396991502e+04   3.318234055386258e+04  -9.344552909487002e-01  -1.966878746110922e+00   2.090446527194047e+00  -9.323473315324372e-06
2017-01-01T08:35:40.000   3.046300854293431e+04   3.320323778832568e+04  -9.345482553884382e-01  -1.968206514050591e+00   2.089000287015535e+00  -9.269410537258860e-06
2017-01-01T08:35:50.000   3.044331984365977e+04   3.322412055665366e+04  -9.346406790715244e-01  -1.969533240088111e+00   2.087553337770881e+00  -9.215322157741113e-06
2017-01-01T08:36:00.000   3.042361788235681e+04   3.324498885192339e+04  -9.347325617428276e-01  -1.970858924056171e+00   2.086105680155136e+00  -9.161208207279064e-06
2017-01-01T08:36:10.000   3.040390266923754e+04   3.326584266727782e+04  -9.348239031477957e-01  -1.972183565791573e+00   2.084657314859030e+00  -9.107068716239055e-06
2017-01-01T08:36:20.000   3.038417421471424e+04   3.328668199565390e+04  -9.349147030311994e-01  -1.973507165117934e+00   2.083208242587624e+00  -9.052903715530277e-06
2017-01-01T08:36:30.000   3.036443252921159e+04   3.330750682998510e+04  -9.350049611380854e-01  -1.974829721858570e+00   2.081758464046491e+00  -8.998713236101296e-06
2017-01-01T08:36:40.000   3.034467762316604e+04   3.332831716320065e+04  -9.350946772137485e-01  -1.976151235836439e+00   2.080307979941670e+00  -8.944497308933623e-06
2017-01-01T08:36:50.000   3.032490950721742e+04   3.334911298802737e+04  -9.351838510029392e-01  -1.977471706861570e+00   2.078856790993715e+00  -8.890255965581236e-06
2017-01-01T08:37:00.000   3.030512819195149e+04   3.336989429725728e+04  -9.352724822509577e-01  -1.978791134748044e+00   2.077404897918810e+00  -8.835989237450333e-06
2017-01-01T08:37:10.000   3.028533368800114e+04   3.339066108364206e+04  -9.353605707032159e-01  -1.980109519307291e+00   2.075952301436202e+00  -8.781697156082178e-06
2017-01-01T08:37:20.000   3.026552600559975e+04   3.341141334036158e+04  -9.354481161072253e-01  -1.981426860377844e+00   2.074499002235423e+00  -8.727379751913170e-06
2017-01-01T08:37:30.000   3.024570515502765e+04   3.343215106055519e+04  -9.355351182106032e-01  -1.982743157795571e+00   2.073045001009055e+00  -8.673037055514466e-06
2017-01-01T08:37:40.000   3.022587114651153e+04   3.345287423742786e+04  -9.356215767615346e-01  -1.984058411400420e+00   2.071590298445338e+00  -8.618669097310143e-06
2017-01-01T08:37:50.000   3.020602399047936e+04   3.347358286397989e+04  -9.357074915075747e-01  -1.985372621019251e+00   2.070134895246912e+00  -8.564275908292456e-06
2017-01-01T08:38:00.000   3.018616369737160e+04   3.349427693320812e+04  -9.357928621965601e-01  -1.986685786478614e+00   2.068678792116930e+00  -8.509857519488031e-06
2017-01-01T08:38:10.000   3.016629027764048e+04   3.351495643810526e+04  -9.358776885765769e-01  -1.987997907604705e+00   2.067221989759017e+00  -8.455413961961799e-06
2017-01-01T08:38:20.000   3.014640374194277e+04   3.353562137146282e+04  -9.359619703952183e-01  -1.989308984210881e+00   2.065764488891376e+00  -8.400945267329215e-06
2017-01-01T08:38:30.000   3.012650410088085e+04   3.355627172613727e+04  -9.360457074006142e-01  -1.990619016114518e+00   2.064306290227823e+00  -8.346451467062576e-06
2017-01-01T08:38:40.000   3.010659136510631e+04   3.357690749494284e+04  -9.361288993410103e-01  -1.991928003130236e+00   2.062847394485396e+00  -8.291932592769556e-06
2017-01-01T08:38:50.000   3.008666554486326e+04   3.359752867112513e+04  -9.362115459666752e-01  -1.993235945099922e+00   2.061387802350873e+00  -8.237388674957010e-06
2017-01-01T08:39:00.000   3.006672665044612e+04   3.361813524788633e+04  -9.362936470279842e-01  -1.994542841862613e+00   2.059927514514330e+00  -8.182819744270079e-06
2017-01-01T08:39:10.000   3.004677469208155e+04   3.363872721850775e+04  -9.363752022759168e-01  -1.995848693262283e+00   2.058466531660485e+00  -8.128225831173978e-06
2017-01-01T08:39:20.000   3.002680968024558e+04   3.365930457601955e+04  -9.364562114606971e-01  -1.997153499126870e+00   2.057004854491943e+00  -8.073606966808578e-06
2017-01-01T08:39:30.000   3.000683162540217e+04   3.367986731347359e+04  -9.365366743329250e-01  -1.998457259285602e+00   2.055542483710030e+00  -8.018963182286031e-06
2017-01-01T08:39:40.000   2.998684053806145e+04   3.370041542388246e+04  -9.366165906433219e-01  -1.999759973565120e+00   2.054079420019064e+00  -7.964294508845820e-06
2017-01-01T08:39:50.000   2.996683642876479e+04   3.372094890023704e+04  -9.366959601428382e-01  -2.001061641790604e+00   2.052615664125241e+00  -7.909600977825573e-06
2017-01-01T08:40:00.000   2.994681930806402e+04   3.374146773552600e+04  -9.367747825826958e-01  -2.002362263787002e+00   2.051151216735136e+00  -7.854882620592804e-06
2017-01-01T08:40:10.000   2.992678918651440e+04   3.376197192274340e+04  -9.368530577144226e-01  -2.003661839379502e+00   2.049686078555176e+00  -7.800139468529255e-06
2017-01-01T08:40:20.000   2.990674607460329e+04   3.378246145496239e+04  -9.369307852901536e-01  -2.004960368398228e+00   2.048220250286429e+00  -7.745371552826517e-06
2017-01-01T08:40:30.000   2.988668998279751e+04   3.380293632528585e+04  -9.370079650624151e-01  -2.006257850675084e+00   2.046753732628063e+00  -7.690578904624358e-06
2017-01-01T08:40:40.000   2.986662092154337e+04   3.382339652684642e+04  -9.370845967841367e-01  -2.007554286043767e+00   2.045286526277361e+00  -7.635761555008211e-06
2017-01-01T08:40:50.000   2.984653890121826e+04   3.384384205285470e+04  -9.371606802088083e-01  -2.008849674342820e+00   2.043818631926184e+00  -7.580919534883235e-06
2017-01-01T08:41:00.000   2.982644393220294e+04   3.386427289652659e+04  -9.372362150902233e-01  -2.010144015411021e+00   2.042350050266249e+00  -7.526052875165730e-06
2017-01-01T08:41:10.000   2.980633602488876e+04   3.388468905107596e+04  -9.373112011824559e-01  -2.011437309086927e+00   2.040880781989659e+00  -7.471161606804480e-06
2017-01-01T08:41:20.000   2.978621518969693e+04   3.390509050969344e+04  -9.373856382397522e-01  -2.012729555207518e+00   2.039410827790322e+00  -7.416245760831591e-06
2017-01-01T08:41:30.000   2.976608143709554e+04   3.392547726553117e+04  -9.374595260165115e-01  -2.014020753607243e+00   2.037940188365184e+00  -7.361305368410086e-06
2017-01-01T08:41:40.000   2.974593477754000e+04   3.394584931176232e+04  -9.375328642674879e-01  -2.015310904121785e+00   2.036468864409873e+00  -7.306340460671842e-06
2017-01-01T08:41:50.000   2.972577522173971e+04   3.396620664131415e+04  -9.376056527468765e-01  -2.016600006571164e+00   2.034996856638164e+00  -7.251351069441834e-06
2017-01-01T08:42:00.000   2.970560278033516e+04   3.398654924719180e+04  -9.376778912094326e-01  -2.017888060780232e+00   2.033524165758411e+00  -7.196337226361340e-06
2017-01-01T08:42:10.000   2.968541746401779e+04   3.400687712235770e+04  -9.377495794100495e-01  -2.019175066571044e+00   2.032050792482307e+00  -7.141298963212780e-06
2017-01-01T08:42:20.000   2.966521928306601e+04   3.402719026019937e+04  -9.378207171054140e-01  -2.020461023792466e+00   2.030576737490996e+00  -7.086236310662408e-06
